CELESTIS-02 & TAURUS R/B
1 25160U 98007D   26066.64521566  .00000028  00000+0  69368-4 0  9998
2 25160 108.0077 127.3305 0063325 305.4406 180.4019 14.22452594456074
